0 SL-14 R/B
1 20721U 90066B   13282.84193895  .00000014  00000-0  22818-3 0   503
2 20721 073.5968 113.0814 0023495 036.6508 089.3083 12.41056202 51168
0 SL-14 R/B
1 20721U 90066B   13287.11653556 -.00000029  00000-0 -85530-4 0   524
2 20721 073.5968 107.3475 0023572 030.4247 107.4755 12.41056800 51695
0 SL-14 R/B
1 20721U 90066B   13289.13148215 -.00000052  00000-0 -25291-3 0   533
2 20721 073.5971 104.6447 0023620 027.4845 109.9206 12.41056875 51940
0 SL-14 R/B
1 20721U 90066B   13291.44983137 -.00000036  00000-0 -13911-3 0   549
2 20721 073.5976 101.5352 0023624 024.0285 027.9924 12.41056838 52239
0 SL-14 R/B
1 20721U 90066B   13293.46626738 -.00000010  00000-0  54378-4 0   559
2 20721 073.5980 098.8307 0023675 021.0964 037.0829 12.41056528 52488
0 SL-14 R/B
1 20721U 90066B   13295.47074799  .00000007  00000-0  17688-3 0   564
2 20721 073.5981 096.1422 0023740 018.3026 352.6362 12.41056385 52736
